{
    "links": {
        "self": "http://www.neowsapp.com/rest/v1/neo/54054313?api_key=iIulBulltgU6a56xZRHN4H3l9WmuAYTsLGpBGhQ2"
    },
    "id": "54054313",
    "neo_reference_id": "54054313",
    "name": "(2020 RF6)",
    "designation": "2020 RF6",
    "nasa_jpl_url": "http://ssd.jpl.nasa.gov/sbdb.cgi?sstr=54054313",
    "absolute_magnitude_h": 23.427,
    "estimated_diameter": {
        "kilometers": {
            "estimated_diameter_min": 0.0548472651,
            "estimated_diameter_max": 0.1226422131
        },
        "meters": {
            "estimated_diameter_min": 54.8472650728,
            "estimated_diameter_max": 122.6422130826
        },
        "miles": {
            "estimated_diameter_min": 0.0340804999,
            "estimated_diameter_max": 0.0762063146
        },
        "feet": {
            "estimated_diameter_min": 179.9451011413,
            "estimated_diameter_max": 402.36947837
        }
    },
    "is_potentially_hazardous_asteroid": false,
    "close_approach_data": [
        {
            "close_approach_date": "2018-08-30",
            "close_approach_date_full": "2018-Aug-30 03:37",
            "epoch_date_close_approach": 1535600220000,
            "relative_velocity": {
                "kilometers_per_second": "15.0769505398",
                "kilometers_per_hour": "54277.0219431083",
                "miles_per_hour": "33725.6306623719"
            },
            "miss_distance": {
                "astronomical": "0.2634751502",
                "lunar": "102.4918334278",
                "kilometers": "39415321.267850074",
                "miles": "24491544.9478120612"
            },
            "orbiting_body": "Earth"
        },
        {
            "close_approach_date": "2020-09-13",
            "close_approach_date_full": "2020-Sep-13 05:21",
            "epoch_date_close_approach": 1599974460000,
            "relative_velocity": {
                "kilometers_per_second": "17.0017462483",
                "kilometers_per_hour": "61206.2864937677",
                "miles_per_hour": "38031.2061827525"
            },
            "miss_distance": {
                "astronomical": "0.0482813166",
                "lunar": "18.7814321574",
                "kilometers": "7222782.124155642",
                "miles": "4488028.6992941796"
            },
            "orbiting_body": "Earth"
        },
        {
            "close_approach_date": "2022-09-26",
            "close_approach_date_full": "2022-Sep-26 17:33",
            "epoch_date_close_approach": 1664213580000,
            "relative_velocity": {
                "kilometers_per_second": "21.9072359325",
                "kilometers_per_hour": "78866.0493569755",
                "miles_per_hour": "49004.296057394"
            },
            "miss_distance": {
                "astronomical": "0.2980774153",
                "lunar": "115.9521145517",
                "kilometers": "44591746.423985411",
                "miles": "27708026.3896082318"
            },
            "orbiting_body": "Earth"
        }
    ],
    "orbital_data": {
        "orbit_id": "5",
        "orbit_determination_date": "2020-09-20 06:39:15",
        "first_observation_date": "2020-09-13",
        "last_observation_date": "2020-09-19",
        "data_arc_in_days": 6,
        "observations_used": 79,
        "orbit_uncertainty": "8",
        "minimum_orbit_intersection": ".0460749",
        "jupiter_tisserand_invariant": "4.138",
        "epoch_osculation": "2459107.5",
        "eccentricity": ".3962906321972041",
        "semi_major_axis": "1.610714199518925",
        "inclination": "27.33944892031679",
        "ascending_node_longitude": "172.1221788318717",
        "orbital_period": "746.6656251339716",
        "perihelion_distance": ".9724032511025563",
        "perihelion_argument": "135.8441239617544",
        "aphelion_distance": "2.249025147935293",
        "perihelion_time": "2459069.711291024389",
        "mean_anomaly": "18.21958152791493",
        "mean_motion": ".4821435296896204",
        "equinox": "J2000",
        "orbit_class": {
            "orbit_class_type": "APO",
            "orbit_class_description": "Near-Earth asteroid orbits which cross the Earth’s orbit similar to that of 1862 Apollo",
            "orbit_class_range": "a (semi-major axis) > 1.0 AU; q (perihelion) < 1.017 AU"
        }
    },
    "is_sentry_object": false
}